[{"OBJECT_NAME":"CINEMA","OBJECT_ID":"2012-048G","EPOCH":"2026-03-09T23:21:38.910528","MEAN_MOTION":15.41758997,"ECCENTRICITY":0.00644529,"INCLINATION":64.645,"RA_OF_ASC_NODE":61.8658,"ARG_OF_PERICENTER":204.5071,"MEAN_ANOMALY":155.2999,"EPHEMERIS_TYPE":0,"CLASSIFICATION_TYPE":"U","NORAD_CAT_ID":38764,"ELEMENT_SET_NO":999,"REV_AT_EPOCH":10191,"BSTAR":0.00076174658,"MEAN_MOTION_DOT":0.0003483,"MEAN_MOTION_DDOT":0},{"OBJECT_NAME":"STARLINK-34883","OBJECT_ID":"2025-192Y","EPOCH":"2026-03-09T22:00:01.999584","MEAN_MOTION":15.30162305,"ECCENTRICITY":0.00010348,"INCLINATION":53.1602,"RA_OF_ASC_NODE":231.0478,"ARG_OF_PERICENTER":80.5466,"MEAN_ANOMALY":236.4039,"EPHEMERIS_TYPE":0,"CLASSIFICATION_TYPE":"U","NORAD_CAT_ID":65426,"ELEMENT_SET_NO":999,"REV_AT_EPOCH":589,"BSTAR":0.0022368522,"MEAN_MOTION_DOT":0.00066406,"MEAN_MOTION_DDOT":0}]
